{"type": "FeatureCollection", "features": [ {"type": "Feature", "properties": {"norad_id": 36439, "name": "COSMOS 2251 DEB", "group": "cosmos-2251-debris", "lat": -57.3481201444235, "lon": 3.2858836770911157, "alt_km": 927.1606746623875, "timestamp": "2025-12-16T23:36:36.595327+00:00", "meta": {"OBJECT_NAME": "COSMOS 2251 DEB", "OBJECT_ID": "1993-036BAN", "EPOCH": "2025-12-14T09:32:51.470880", "MEAN_MOTION": 13.47799978, "ECCENTRICITY": 0.04278843, "INCLINATION": 73.9685, "RA_OF_ASC_NODE": 34.0698, "ARG_OF_PERICENTER": 5.5967, "MEAN_ANOMALY": 354.9698, "EPHEMERIS_TYPE": 0, "CLASSIFICATION_TYPE": "U", "NORAD_CAT_ID": 36439, "ELEMENT_SET_NO": 999, "REV_AT_EPOCH": 58635, "BSTAR": 0.0013173309, "MEAN_MOTION_DOT": 1.398e-05, "MEAN_MOTION_DDOT": 0}, "tle": {"line1": "1 36439U 93036BAN 25348.39781795  .00001398  00000+0  13173-2 0  9994", "line2": "2 36439  73.9685  34.0698 0427884   5.5967 354.9698 13.47799978586355"}}, "geometry": {"type": "Point", "coordinates": [3.2858836770911157, -57.3481201444235]}}, {"type": "Feature", "properties": {"norad_id": 36441, "name": "COSMOS 2251 DEB", "group": "cosmos-2251-debris", "lat": 20.382859625754346, "lon": -12.885083194046034, "alt_km": 504.8718685816075, "timestamp": "2025-12-16T23:36:36.595338+00:00", "meta": {"OBJECT_NAME": "COSMOS 2251 DEB", "OBJECT_ID": "1993-036BAQ", "EPOCH": "2025-12-16T05:59:21.003360", "MEAN_MOTION": 15.06817308, "ECCENTRICITY": 0.01083984, "INCLINATION": 73.8346, "RA_OF_ASC_NODE": 342.4539, "ARG_OF_PERICENTER": 80.7132, "MEAN_ANOMALY": 280.6296, "EPHEMERIS_TYPE": 0, "CLASSIFICATION_TYPE": "U", "NORAD_CAT_ID": 36441, "ELEMENT_SET_NO": 999, "REV_AT_EPOCH": 87018, "BSTAR": 0.00033481532, "MEAN_MOTION_DOT": 5.663e-05, "MEAN_MOTION_DDOT": 0}, "tle": {"line1": "1 36441U 93036BAQ 25350.24954865  .00005663  00000+0  33482-3 0  9999", "line2": "2 36441  73.8346 342.4539 0108398  80.7132 280.6296 15.06817308870187"}}, "geometry": {"type": "Point", "coordinates": [-12.885083194046034, 20.382859625754346]}}, {"type": "Feature", "properties": {"norad_id": 36442, "name": "COSMOS 2251 DEB", "group": "cosmos-2251-debris", "lat": 5.3049927207781185, "lon": -151.36276253720314, "alt_km": 476.97913442293884, "timestamp": "2025-12-16T23:36:36.595348+00:00", "meta": {"OBJECT_NAME": "COSMOS 2251 DEB", "OBJECT_ID": "1993-036BAR", "EPOCH": "2025-12-13T10:09:44.142048", "MEAN_MOTION": 15.30178674, "ECCENTRICITY": 0.00085328, "INCLINATION": 73.9496, "RA_OF_ASC_NODE": 37.7946, "ARG_OF_PERICENTER": 324.6725, "MEAN_ANOMALY": 35.3911, "EPHEMERIS_TYPE": 0, "CLASSIFICATION_TYPE": "U", "NORAD_CAT_ID": 36442, "ELEMENT_SET_NO": 999, "REV_AT_EPOCH": 85926, "BSTAR": 0.0075856442, "MEAN_MOTION_DOT": 0.00228665, "MEAN_MOTION_DDOT": 0}, "tle": {"line1": "1 36442U 93036BAR 25347.42342757  .00228665  00000+0  75856-2 0  9996", "line2": "2 36442  73.9496  37.7946 0008532 324.6725  35.3911 15.30178674859266"}}, "geometry": {"type": "Point", "coordinates": [-151.36276253720314, 5.3049927207781185]}}, {"type": "Feature", "properties": {"norad_id": 36451, "name": "COSMOS 2251 DEB", "group": "cosmos-2251-debris", "lat": 34.80628899206431, "lon": 136.07043934836287, "alt_km": 695.3539945723733, "timestamp": "2025-12-16T23:36:36.595358+00:00", "meta": {"OBJECT_NAME": "COSMOS 2251 DEB", "OBJECT_ID": "1993-036BBA", "EPOCH": "2025-12-08T10:10:07.447584", "MEAN_MOTION": 14.18724413, "ECCENTRICITY": 0.01840749, "INCLINATION": 73.9539, "RA_OF_ASC_NODE": 342.9701, "ARG_OF_PERICENTER": 168.3937, "MEAN_ANOMALY": 192.1542, "EPHEMERIS_TYPE": 0, "CLASSIFICATION_TYPE": "U", "NORAD_CAT_ID": 36451, "ELEMENT_SET_NO": 999, "REV_AT_EPOCH": 84164, "BSTAR": 0.0010726423, "MEAN_MOTION_DOT": 2.61e-05, "MEAN_MOTION_DDOT": 0}, "tle": {"line1": "1 36451U 93036BBA 25342.42369731  .00002610  00000+0  10726-2 0  9997", "line2": "2 36451  73.9539 342.9701 0184074 168.3937 192.1542 14.18724413841646"}}, "geometry": {"type": "Point", "coordinates": [136.07043934836287, 34.80628899206431]}}, {"type": "Feature", "properties": {"norad_id": 36453, "name": "COSMOS 2251 DEB", "group": "cosmos-2251-debris", "lat": -14.708305159794515, "lon": -31.328334876831942, "alt_km": 763.9105306668225, "timestamp": "2025-12-16T23:36:36.595369+00:00", "meta": {"OBJECT_NAME": "COSMOS 2251 DEB", "OBJECT_ID": "1993-036BBC", "EPOCH": "2025-12-14T21:50:20.335776", "MEAN_MOTION": 14.5262544, "ECCENTRICITY": 0.00704026, "INCLINATION": 73.9229, "RA_OF_ASC_NODE": 148.2665, "ARG_OF_PERICENTER": 51.0151, "MEAN_ANOMALY": 103.2875, "EPHEMERIS_TYPE": 0, "CLASSIFICATION_TYPE": "U", "NORAD_CAT_ID": 36453, "ELEMENT_SET_NO": 999, "REV_AT_EPOCH": 84499, "BSTAR": 0.00063328924, "MEAN_MOTION_DOT": 2.649e-05, "MEAN_MOTION_DDOT": 0}, "tle": {"line1": "1 36453U 93036BBC 25348.90995759  .00002649  00000+0  63329-3 0  9993", "line2": "2 36453  73.9229 148.2665 0070402  51.0151 103.2875 14.52625440844996"}}, "geometry": {"type": "Point", "coordinates": [-31.328334876831942, -14.708305159794515]}}, {"type": "Feature", "properties": {"norad_id": 36459, "name": "COSMOS 2251 DEB", "group": "cosmos-2251-debris", "lat": 66.73484322817895, "lon": 33.83092934954123, "alt_km": 717.6913085448459, "timestamp": "2025-12-16T23:36:36.595379+00:00", "meta": {"OBJECT_NAME": "COSMOS 2251 DEB", "OBJECT_ID": "1993-036BBJ", "EPOCH": "2025-12-15T06:52:40.994112", "MEAN_MOTION": 14.2642949, "ECCENTRICITY": 0.01133967, "INCLINATION": 74.0484, "RA_OF_ASC_NODE": 355.1955, "ARG_OF_PERICENTER": 90.2624, "MEAN_ANOMALY": 271.1518, "EPHEMERIS_TYPE": 0, "CLASSIFICATION_TYPE": "U", "NORAD_CAT_ID": 36459, "ELEMENT_SET_NO": 999, "REV_AT_EPOCH": 7918, "BSTAR": 0.0010918207, "MEAN_MOTION_DOT": 2.788e-05, "MEAN_MOTION_DDOT": 0}, "tle": {"line1": "1 36459U 93036BBJ 25349.28658558  .00002788  00000+0  10918-2 0  9993", "line2": "2 36459  74.0484 355.1955 0113396  90.2624 271.1518 14.26429490 79186"}}, "geometry": {"type": "Point", "coordinates": [33.83092934954123, 66.73484322817895]}}, {"type": "Feature", "properties": {"norad_id": 36470, "name": "COSMOS 2251 DEB", "group": "cosmos-2251-debris", "lat": -73.45279408044684, "lon": 168.24606720388857, "alt_km": 564.6460322472021, "timestamp": "2025-12-16T23:36:36.595389+00:00", "meta": {"OBJECT_NAME": "COSMOS 2251 DEB", "OBJECT_ID": "1993-036BBV", "EPOCH": "2025-12-15T00:13:00.014016", "MEAN_MOTION": 15.07582269, "ECCENTRICITY": 0.00222568, "INCLINATION": 73.8449, "RA_OF_ASC_NODE": 249.6845, "ARG_OF_PERICENTER": 78.1368, "MEAN_ANOMALY": 282.2316, "EPHEMERIS_TYPE": 0, "CLASSIFICATION_TYPE": "U", "NORAD_CAT_ID": 36470, "ELEMENT_SET_NO": 999, "REV_AT_EPOCH": 66128, "BSTAR": 0.0018721064, "MEAN_MOTION_DOT": 0.0002872, "MEAN_MOTION_DDOT": 0}, "tle": {"line1": "1 36470U 93036BBV 25349.00902794  .00028720  00000+0  18721-2 0  9994", "line2": "2 36470  73.8449 249.6845 0022256  78.1368 282.2316 15.07582269661287"}}, "geometry": {"type": "Point", "coordinates": [168.24606720388857, -73.45279408044684]}}, {"type": "Feature", "properties": {"norad_id": 36528, "name": "COSMOS 2251 DEB", "group": "cosmos-2251-debris", "lat": -66.18141554027929, "lon": -2.0248710529687965, "alt_km": 771.2441656388737, "timestamp": "2025-12-16T23:36:36.595400+00:00", "meta": {"OBJECT_NAME": "COSMOS 2251 DEB", "OBJECT_ID": "1993-036BCN", "EPOCH": "2025-12-14T16:44:10.040352", "MEAN_MOTION": 14.30658136, "ECCENTRICITY": 0.00847741, "INCLINATION": 74.0159, "RA_OF_ASC_NODE": 141.651, "ARG_OF_PERICENTER": 190.7529, "MEAN_ANOMALY": 169.1813, "EPHEMERIS_TYPE": 0, "CLASSIFICATION_TYPE": "U", "NORAD_CAT_ID": 36528, "ELEMENT_SET_NO": 999, "REV_AT_EPOCH": 64455, "BSTAR": 0.0012089622, "MEAN_MOTION_DOT": 3.261e-05, "MEAN_MOTION_DDOT": 0}, "tle": {"line1": "1 36528U 93036BCN 25348.69733843  .00003261  00000+0  12090-2 0  9995", "line2": "2 36528  74.0159 141.6510 0084774 190.7529 169.1813 14.30658136644553"}}, "geometry": {"type": "Point", "coordinates": [-2.0248710529687965, -66.18141554027929]}}, {"type": "Feature", "properties": {"norad_id": 36533, "name": "COSMOS 2251 DEB", "group": "cosmos-2251-debris", "lat": -17.160946644685296, "lon": 101.76842656634004, "alt_km": 728.7628159495398, "timestamp": "2025-12-16T23:36:36.595410+00:00", "meta": {"OBJECT_NAME": "COSMOS 2251 DEB", "OBJECT_ID": "1993-036BCT", "EPOCH": "2025-12-16T02:09:50.256000", "MEAN_MOTION": 14.4982965, "ECCENTRICITY": 0.00492471, "INCLINATION": 74.0118, "RA_OF_ASC_NODE": 108.5273, "ARG_OF_PERICENTER": 257.1253, "MEAN_ANOMALY": 102.4403, "EPHEMERIS_TYPE": 0, "CLASSIFICATION_TYPE": "U", "NORAD_CAT_ID": 36533, "ELEMENT_SET_NO": 999, "REV_AT_EPOCH": 84533, "BSTAR": 0.00039238166, "MEAN_MOTION_DOT": 1.509e-05, "MEAN_MOTION_DDOT": 0}, "tle": {"line1": "1 36533U 93036BCT 25350.09016500  .00001509  00000+0  39238-3 0  9999", "line2": "2 36533  74.0118 108.5273 0049247 257.1253 102.4403 14.49829650845335"}}, "geometry": {"type": "Point", "coordinates": [101.76842656634004, -17.160946644685296]}}, {"type": "Feature", "properties": {"norad_id": 36539, "name": "COSMOS 2251 DEB", "group": "cosmos-2251-debris", "lat": -30.629868802975388, "lon": 37.31925660043913, "alt_km": 714.8373541236388, "timestamp": "2025-12-16T23:36:36.595420+00:00", "meta": {"OBJECT_NAME": "COSMOS 2251 DEB", "OBJECT_ID": "1993-036BCZ", "EPOCH": "2025-12-16T04:00:50.074272", "MEAN_MOTION": 14.59325285, "ECCENTRICITY": 0.00269961, "INCLINATION": 74.0244, "RA_OF_ASC_NODE": 48.6419, "ARG_OF_PERICENTER": 193.2627, "MEAN_ANOMALY": 166.7832, "EPHEMERIS_TYPE": 0, "CLASSIFICATION_TYPE": "U", "NORAD_CAT_ID": 36539, "ELEMENT_SET_NO": 999, "REV_AT_EPOCH": 83997, "BSTAR": 0.00045664758, "MEAN_MOTION_DOT": 2.141e-05, "MEAN_MOTION_DDOT": 0}, "tle": {"line1": "1 36539U 93036BCZ 25350.16724623  .00002141  00000+0  45665-3 0  9999", "line2": "2 36539  74.0244  48.6419 0026996 193.2627 166.7832 14.59325285839976"}}, "geometry": {"type": "Point", "coordinates": [37.31925660043913, -30.629868802975388]}}]}